GALAXY 37 (G-37)        
1 57493U 23112A   26193.60912083  .00000049  00000+0  00000+0 0  9998
2 57493   0.0180  69.1837 0001734  47.7877 265.8043  1.00270910 10793
LUDI TANCE-4 01A        
1 57624U 23120A   26193.89784183 -.00000171  00000+0  00000+0 0  9999
2 57624  15.0879 193.3336 0001268  21.0710 129.0662  1.00276219 10805
TJS-10                  
1 58204U 23169A   26193.79330669 -.00000252  00000+0  00000+0 0  9992
2 58204   2.6078  80.1837 0004070 116.0570 112.3864  1.00274459  9794
ZHONGXING-6E            
1 58253U 23172A   26191.73864204 -.00000352  00000+0  00000+0 0  9990
2 58253   0.0182  60.2036 0002174  50.2192 199.5949  1.00266240  9899
YAOGAN-41               
1 58582U 23197A   26193.87247235 -.00000358  00000+0  00000+0 0  9994
2 58582   3.0832 313.5391 0014264 198.6829 215.7743  1.00266759  9588
OVZON-3                 
1 58698U 24003A   26193.78862074  .00000051  00000+0  00000+0 0  9992
2 58698   0.0180  84.7752 0000445 248.3019 301.1867  1.00272809  7709
INSAT-3DS               
1 58990U 24033A   26193.79312743 -.00000156  00000+0  00000+0 0  9991
2 58990   0.0982 265.1736 0001033 225.5133 167.5910  1.00271140 47321
MERAH PUTIH 2           
1 58995U 24035A   26193.79919412 -.00000358  00000+0  00000+0 0  9998
2 58995   0.0169  78.6410 0001052  36.2377 216.4741  1.00271335  8843
TJS-11                  
1 59020U 24037A   26193.87039234 -.00000359  00000+0  00000+0 0  9995
2 59020   4.1664 327.3956 0001796 147.7310 241.5085  1.00274835  8845
HULIANWAN GAOGUI-01 (H*)
1 59069U 24040A   26193.49836679  .00000157  00000+0  00000+0 0  9993
2 59069   0.0755 330.6497 0001828  67.4323 105.3455  1.00270541  7587
EUTELSAT 36D            
1 59346U 24059A   26193.78308711  .00000000  00000+0  00000+0 0  9991
2 59346   0.0280  56.9239 0000532 142.5486  48.9938  1.00271552  8409
PAKSAT-MM1              
1 59915U 24104A   26193.78308711  .00000153  00000+0  00000+0 0  9993
2 59915   0.0336 154.7767 0001971 301.6209 154.3273  1.00269366  7789
ASTRA 1P (SES-24)       
1 60086U 24115A   26193.63806764  .00000120  00000+0  00000+0 0  9995
2 60086   0.0663 332.0636 0000696 234.0023 333.3659  1.00266438  7453
GOES 19                 
1 60133U 24119A   26193.83325431 -.00000249  00000+0  00000+0 0  9994
2 60133   0.0079 286.6205 0000463 289.4526 299.4176  1.00272104  7225
ZHONGXING-3A            
1 60179U 24122A   26193.79694079 -.00000314  00000+0  00000+0 0  9993
2 60179   0.0296 128.8655 0001518  36.2450 154.0627  1.00272166  7560
TURKSAT 6A              
1 60233U 24127A   26193.78516795  .00000000  00000+0  00000+0 0  9997
2 60233   0.0192 234.0097 0002935 297.0958  84.2139  1.00268960  7277
HULIANWAN GAOGUI-02 (H*)
1 60327U 24135A   26193.80716751 -.00000175  00000+0  00000+0 0  9991
2 60327   0.0472 351.7737 0006356  16.1858   6.3485  1.00270508  7753
ZHONGXING-4A            
1 60606U 24151A   26193.80023413 -.00000361  00000+0  00000+0 0  9992
2 60606   1.2503 270.5203 0000383 303.1949 123.2608  1.00268470  7011
HULIANWAN GAOGUI-03 (H*)
1 61503U 24181A   26193.83282097 -.00000242  00000+0  00000+0 0  9998
2 61503   0.0510 354.2045 0000996  91.0537  68.1654  1.00269924  7083
DSN-3 (KIRAMEKI-3)      
1 61733U 24198A   26193.80534750  .00000000  00000+0  00000+0 0  9995
2 61733   0.0232  38.5930 0000813 105.8381 220.2547  1.00270801  6170
KOREASAT 6A             
1 61910U 24206A   26193.79980080  .00000000  00000+0  00000+0 0  9991
2 61910   0.0257  69.9538 0000694  20.9867 243.6997  1.00269306  6096
OPTUS-X (ADS-01)        
1 62006U 24212A   26193.80777418 -.00000144  00000+0  00000+0 0  9996
2 62006   0.0159  34.3655 0002355 119.9736 223.5455  1.00270122  6016
GSAT-N2 (GSAT-20)       
1 62028U 24214A   26193.86275079 -.00000020  00000+0  00000+0 0  9997
2 62028   0.0811 263.4276 0002633 141.5369 264.3070  1.00270601  6154
SXM-9                   
1 62259U 24234A   26193.26099877 -.00000203  00000+0  00000+0 0  9992
2 62259   0.0182 333.2441 0005020 342.7559 342.9520  1.00268373  5829
TJS-12                  
1 62374U 24246A   26193.80586750 -.00000231  00000+0  00000+0 0  9995
2 62374   0.6169 301.7937 0001756  96.2343 329.3185  1.00269469  5825
NUVIEW ALPHA            
1 62455U 24252B   26193.47522668 -.00000214  00000+0  00000+0 0  9994
2 62455   0.0407  18.5139 0001004  56.9923 302.8361  1.00271120  4079
AGILA                   
1 62456U 24252C   26193.80699418 -.00000182  00000+0  00000+0 0  9994
2 62456   0.0468 138.9125 0001299  12.1962 222.2750  1.00273279  5415
NUVIEW BRAVO            
1 62457U 24252D   26193.47522668 -.00000214  00000+0  00000+0 0  9996
2 62457   0.0674 171.6596 0001604 347.8398 218.8466  1.00271214  4042
THURAYA-4               
1 62483U 25001A   26193.78560130  .00000139  00000+0  00000+0 0  9993
2 62483   0.0192  68.4181 0000229 203.6319 345.7450  1.00272526  4436
SHIJIAN-25 (SJ-25)      
1 62485U 25002A   26193.68740678 -.00000355  00000+0  00000+0 0  9993
2 62485   5.1714  60.9993 0052176 175.3572  68.8896  1.00263277  5617
TJS-14                  
1 62804U 25017A   26193.85147693  .00000116  00000+0  00000+0 0  9995
2 62804   0.7267 297.5002 0001826 294.4699  23.7298  1.00274812  5527
SPAINSAT NG I           
1 62852U 25021A   26193.78308711  .00000151  00000+0  00000+0 0  9994
2 62852   0.0173  17.3083 0000382 187.1128  37.1424  1.00270730  4240
