OBJECT_NAME,OBJECT_ID,EPOCH,MEAN_MOTION,ECCENTRICITY,INCLINATION,RA_OF_ASC_NODE,ARG_OF_PERICENTER,MEAN_ANOMALY,EPHEMERIS_TYPE,CLASSIFICATION_TYPE,NORAD_CAT_ID,ELEMENT_SET_NO,REV_AT_EPOCH,BSTAR,MEAN_MOTION_DOT,MEAN_MOTION_DDOT
GALAXY 37 (G-37),2023-112A,2026-07-12T14:37:08.039712,1.00270910,.0001734,0.0180,69.1837,47.7877,265.8043,0,U,57493,999,1079,0,.49E-6,0
LUDI TANCE-4 01A,2023-120A,2026-07-12T21:32:53.534112,1.00276219,.0001268,15.0879,193.3336,21.0710,129.0662,0,U,57624,999,1080,0,-.171E-5,0
TJS-10,2023-169A,2026-07-12T19:02:21.698016,1.00274459,.000407,2.6078,80.1837,116.0570,112.3864,0,U,58204,999,979,0,-.252E-5,0
ZHONGXING-6E,2023-172A,2026-07-10T17:43:38.672256,1.00266240,.00021744,0.0182,60.2036,50.2192,199.5949,0,U,58253,999,989,0,-.352E-5,0
YAOGAN-41,2023-197A,2026-07-12T20:56:21.611040,1.00266759,.0014264,3.0832,313.5391,198.6829,215.7743,0,U,58582,999,958,0,-.358E-5,0
OVZON-3,2024-003A,2026-07-12T18:55:36.831936,1.00272809,.0000445,0.0180,84.7752,248.3019,301.1867,0,U,58698,999,770,0,.51E-6,0
INSAT-3DS,2024-033A,2026-07-12T19:02:06.209952,1.00271140,.0001033,0.0982,265.1736,225.5133,167.5910,0,U,58990,999,4732,0,-.156E-5,0
MERAH PUTIH 2,2024-035A,2026-07-12T19:10:50.371968,1.00271335,.0001052,0.0169,78.6410,36.2377,216.4741,0,U,58995,999,884,0,-.358E-5,0
TJS-11,2024-037A,2026-07-12T20:53:21.898176,1.00274835,.0001796,4.1664,327.3956,147.7310,241.5085,0,U,59020,999,884,0,-.359E-5,0
HULIANWAN GAOGUI-01 (HG-01),2024-040A,2026-07-12T11:57:38.890656,1.00270541,.00018287,0.0755,330.6497,67.4323,105.3455,0,U,59069,999,758,0,.157E-5,0
EUTELSAT 36D,2024-059A,2026-07-12T18:47:38.726304,1.00271552,.0000532,0.0280,56.9239,142.5486,48.9938,0,U,59346,999,840,0,0,0
PAKSAT-MM1,2024-104A,2026-07-12T18:47:38.726304,1.00269366,.0001971,0.0336,154.7767,301.6209,154.3273,0,U,59915,999,778,0,.153E-5,0
ASTRA 1P (SES-24),2024-115A,2026-07-12T15:18:49.044096,1.00266438,.0000696,0.0663,332.0636,234.0023,333.3659,0,U,60086,999,745,0,.12E-5,0
GOES 19,2024-119A,2026-07-12T19:59:53.172384,1.00272104,.0000463,0.0079,286.6205,289.4526,299.4176,0,U,60133,999,722,0,-.249E-5,0
ZHONGXING-3A,2024-122A,2026-07-12T19:07:35.684256,1.00272166,.0001518,0.0296,128.8655,36.2450,154.0627,0,U,60179,999,756,0,-.314E-5,0
TURKSAT 6A,2024-127A,2026-07-12T18:50:38.510880,1.00268960,.0002935,0.0192,234.0097,297.0958,84.2139,0,U,60233,999,727,0,0,0
HULIANWAN GAOGUI-02 (HG-02),2024-135A,2026-07-12T19:22:19.272864,1.00270508,.0006356,0.0472,351.7737,16.1858,6.3485,0,U,60327,999,775,0,-.175E-5,0
ZHONGXING-4A,2024-151A,2026-07-12T19:12:20.228832,1.00268470,.0000383,1.2503,270.5203,303.1949,123.2608,0,U,60606,999,701,0,-.361E-5,0
HULIANWAN GAOGUI-03 (HG-03),2024-181A,2026-07-12T19:59:15.731808,1.00269924,.0000996,0.0510,354.2045,91.0537,68.1654,0,U,61503,999,708,0,-.242E-5,0
DSN-3 (KIRAMEKI-3),2024-198A,2026-07-12T19:19:42.024000,1.00270801,.0000813,0.0232,38.5930,105.8381,220.2547,0,U,61733,999,617,0,0,0
KOREASAT 6A,2024-206A,2026-07-12T19:11:42.789120,1.00269306,.0000694,0.0257,69.9538,20.9867,243.6997,0,U,61910,999,609,0,0,0
OPTUS-X (ADS-01),2024-212A,2026-07-12T19:23:11.689152,1.00270122,.0002355,0.0159,34.3655,119.9736,223.5455,0,U,62006,999,601,0,-.144E-5,0
GSAT-N2 (GSAT-20),2024-214A,2026-07-12T20:42:21.668256,1.00270601,.0002633,0.0811,263.4276,141.5369,264.3070,0,U,62028,999,615,0,-.2E-6,0
SXM-9,2024-234A,2026-07-12T06:15:50.293728,1.00268373,.000502,0.0182,333.2441,342.7559,342.9520,0,U,62259,999,582,0,-.203E-5,0
TJS-12,2024-246A,2026-07-12T19:20:26.952000,1.00269469,.0001756,0.6169,301.7937,96.2343,329.3185,0,U,62374,999,582,0,-.231E-5,0
NUVIEW ALPHA,2024-252B,2026-07-12T11:24:19.585152,1.00271120,.0001004,0.0407,18.5139,56.9923,302.8361,0,U,62455,999,407,0,-.214E-5,0
AGILA,2024-252C,2026-07-12T19:22:04.297152,1.00273279,.0001299,0.0468,138.9125,12.1962,222.2750,0,U,62456,999,541,0,-.182E-5,0
NUVIEW BRAVO,2024-252D,2026-07-12T11:24:19.585152,1.00271214,.0001604,0.0674,171.6596,347.8398,218.8466,0,U,62457,999,404,0,-.214E-5,0
THURAYA-4,2025-001A,2026-07-12T18:51:15.952320,1.00272526,.0000229,0.0192,68.4181,203.6319,345.7450,0,U,62483,999,443,0,.139E-5,0
SHIJIAN-25 (SJ-25),2025-002A,2026-07-12T16:29:51.945792,1.00263277,.0052176,5.1714,60.9993,175.3572,68.8896,0,U,62485,999,561,0,-.355E-5,0
TJS-14,2025-017A,2026-07-12T20:26:07.606752,1.00274812,.0001826,0.7267,297.5002,294.4699,23.7298,0,U,62804,999,552,0,.116E-5,0
SPAINSAT NG I,2025-021A,2026-07-12T18:47:38.726304,1.00270730,.0000382,0.0173,17.3083,187.1128,37.1424,0,U,62852,999,424,0,.151E-5,0
